[{"OBJECT_NAME":"STARLINK-4724","OBJECT_ID":"2022-107C","EPOCH":"2025-09-24T03:32:30.663168","MEAN_MOTION":15.08835282,"ECCENTRICITY":0.00014208,"INCLINATION":53.2155,"RA_OF_ASC_NODE":256.6607,"ARG_OF_PERICENTER":90.1645,"MEAN_ANOMALY":269.951,"EPHEMERIS_TYPE":0,"CLASSIFICATION_TYPE":"U","NORAD_CAT_ID":53702,"ELEMENT_SET_NO":999,"REV_AT_EPOCH":16995,"BSTAR":3.489019e-6,"MEAN_MOTION_DOT":-2.32e-6,"MEAN_MOTION_DDOT":0},{"OBJECT_NAME":"STARLINK-4731","OBJECT_ID":"2022-107D","EPOCH":"2025-09-24T06:28:01.161696","MEAN_MOTION":15.08824036,"ECCENTRICITY":0.00014569,"INCLINATION":53.2157,"RA_OF_ASC_NODE":270.9552,"ARG_OF_PERICENTER":96.231,"MEAN_ANOMALY":263.8848,"EPHEMERIS_TYPE":0,"CLASSIFICATION_TYPE":"U","NORAD_CAT_ID":53703,"ELEMENT_SET_NO":999,"REV_AT_EPOCH":16973,"BSTAR":-0.00016474108,"MEAN_MOTION_DOT":-2.908e-5,"MEAN_MOTION_DDOT":0},{"OBJECT_NAME":"STARLINK-4714","OBJECT_ID":"2022-107E","EPOCH":"2025-09-24T06:01:37.157664","MEAN_MOTION":15.08835375,"ECCENTRICITY":0.00013052,"INCLINATION":53.2164,"RA_OF_ASC_NODE":271.5481,"ARG_OF_PERICENTER":90.6736,"MEAN_ANOMALY":269.4405,"EPHEMERIS_TYPE":0,"CLASSIFICATION_TYPE":"U","NORAD_CAT_ID":53704,"ELEMENT_SET_NO":999,"REV_AT_EPOCH":16956,"BSTAR":2.2043451e-5,"MEAN_MOTION_DOT":6.3e-7,"MEAN_MOTION_DDOT":0},{"OBJECT_NAME":"STARLINK-4717","OBJECT_ID":"2022-107F","EPOCH":"2025-09-24T07:31:41.980512","MEAN_MOTION":15.08831296,"ECCENTRICITY":0.00015247,"INCLINATION":53.2175,"RA_OF_ASC_NODE":271.2318,"ARG_OF_PERICENTER":98.5936,"MEAN_ANOMALY":261.5229,"EPHEMERIS_TYPE":0,"CLASSIFICATION_TYPE":"U","NORAD_CAT_ID":53705,"ELEMENT_SET_NO":999,"REV_AT_EPOCH":16973,"BSTAR":-3.83646e-5,"MEAN_MOTION_DOT":-8.98e-6,"MEAN_MOTION_DDOT":0},{"OBJECT_NAME":"STARLINK-4716","OBJECT_ID":"2022-107G","EPOCH":"2025-09-24T05:35:04.777152","MEAN_MOTION":15.0883703,"ECCENTRICITY":0.00013844,"INCLINATION":53.2156,"RA_OF_ASC_NODE":271.4369,"ARG_OF_PERICENTER":93.9996,"MEAN_ANOMALY":266.1155,"EPHEMERIS_TYPE":0,"CLASSIFICATION_TYPE":"U","NORAD_CAT_ID":53706,"ELEMENT_SET_NO":999,"REV_AT_EPOCH":16972,"BSTAR":-4.4840091e-5,"MEAN_MOTION_DOT":-1.001e-5,"MEAN_MOTION_DDOT":0},{"OBJECT_NAME":"STARLINK-4667","OBJECT_ID":"2022-107H","EPOCH":"2025-09-24T05:23:49.176672","MEAN_MOTION":15.08848584,"ECCENTRICITY":0.00013771,"INCLINATION":53.2152,"RA_OF_ASC_NODE":256.4237,"ARG_OF_PERICENTER":86.0194,"MEAN_ANOMALY":274.0956,"EPHEMERIS_TYPE":0,"CLASSIFICATION_TYPE":"U","NORAD_CAT_ID":53707,"ELEMENT_SET_NO":999,"REV_AT_EPOCH":16993,"BSTAR":5.8547836e-5,"MEAN_MOTION_DOT":6.44e-6,"MEAN_MOTION_DDOT":0},{"OBJECT_NAME":"STARLINK-4694","OBJECT_ID":"2022-107J","EPOCH":"2025-09-24T03:27:12.718080","MEAN_MOTION":15.08822004,"ECCENTRICITY":0.00014913,"INCLINATION":53.2168,"RA_OF_ASC_NODE":256.6408,"ARG_OF_PERICENTER":105.1589,"MEAN_ANOMALY":254.9568,"EPHEMERIS_TYPE":0,"CLASSIFICATION_TYPE":"U","NORAD_CAT_ID":53708,"ELEMENT_SET_NO":999,"REV_AT_EPOCH":16992,"BSTAR":-0.00012832477,"MEAN_MOTION_DOT":-2.329e-5,"MEAN_MOTION_DDOT":0},{"OBJECT_NAME":"STARLINK-4685","OBJECT_ID":"2022-107K","EPOCH":"2025-09-24T07:54:47.622240","MEAN_MOTION":15.08827383,"ECCENTRICITY":0.00012573,"INCLINATION":53.216,"RA_OF_ASC_NODE":275.6343,"ARG_OF_PERICENTER":91.7229,"MEAN_ANOMALY":268.3907,"EPHEMERIS_TYPE":0,"CLASSIFICATION_TYPE":"U","NORAD_CAT_ID":53709,"ELEMENT_SET_NO":999,"REV_AT_EPOCH":16936,"BSTAR":-3.4573569e-5,"MEAN_MOTION_DOT":-8.38e-6,"MEAN_MOTION_DDOT":0},{"OBJECT_NAME":"STARLINK-4627","OBJECT_ID":"2022-107M","EPOCH":"2025-09-24T06:35:20.140224","MEAN_MOTION":15.08829776,"ECCENTRICITY":0.00013429,"INCLINATION":53.2164,"RA_OF_ASC_NODE":275.9909,"ARG_OF_PERICENTER":95.4096,"MEAN_ANOMALY":264.7049,"EPHEMERIS_TYPE":0,"CLASSIFICATION_TYPE":"U","NORAD_CAT_ID":53711,"ELEMENT_SET_NO":999,"REV_AT_EPOCH":16935,"BSTAR":0.00020695635,"MEAN_MOTION_DOT":3.006e-5,"MEAN_MOTION_DDOT":0},{"OBJECT_NAME":"STARLINK-4683","OBJECT_ID":"2022-107N","EPOCH":"2025-09-24T07:33:33.807168","MEAN_MOTION":15.08833591,"ECCENTRICITY":0.00011775,"INCLINATION":53.2165,"RA_OF_ASC_NODE":275.5519,"ARG_OF_PERICENTER":90.1642,"MEAN_ANOMALY":269.9485,"EPHEMERIS_TYPE":0,"CLASSIFICATION_TYPE":"U","NORAD_CAT_ID":53712,"ELEMENT_SET_NO":999,"REV_AT_EPOCH":16938,"BSTAR":3.2670029e-5,"MEAN_MOTION_DOT":2.32e-6,"MEAN_MOTION_DDOT":0},{"OBJECT_NAME":"STARLINK-4686","OBJECT_ID":"2022-107R","EPOCH":"2025-09-24T08:02:03.519744","MEAN_MOTION":15.08837738,"ECCENTRICITY":0.00014417,"INCLINATION":53.2155,"RA_OF_ASC_NODE":280.6349,"ARG_OF_PERICENTER":90.9124,"MEAN_ANOMALY":269.2033,"EPHEMERIS_TYPE":0,"CLASSIFICATION_TYPE":"U","NORAD_CAT_ID":53715,"ELEMENT_SET_NO":999,"REV_AT_EPOCH":16930,"BSTAR":-2.8440294e-5,"MEAN_MOTION_DOT":-7.41e-6,"MEAN_MOTION_DDOT":0},{"OBJECT_NAME":"STARLINK-4699","OBJECT_ID":"2022-107S","EPOCH":"2025-09-24T07:56:46.519872","MEAN_MOTION":15.08840081,"ECCENTRICITY":0.00014335,"INCLINATION":53.2165,"RA_OF_ASC_NODE":280.6106,"ARG_OF_PERICENTER":81.5401,"MEAN_ANOMALY":278.5753,"EPHEMERIS_TYPE":0,"CLASSIFICATION_TYPE":"U","NORAD_CAT_ID":53716,"ELEMENT_SET_NO":999,"REV_AT_EPOCH":16929,"BSTAR":-9.2660453e-5,"MEAN_MOTION_DOT":-1.762e-5,"MEAN_MOTION_DDOT":0},{"OBJECT_NAME":"STARLINK-4695","OBJECT_ID":"2022-107U","EPOCH":"2025-09-24T07:42:20.972448","MEAN_MOTION":15.08836857,"ECCENTRICITY":0.00013434,"INCLINATION":53.2164,"RA_OF_ASC_NODE":281.2433,"ARG_OF_PERICENTER":96.664,"MEAN_ANOMALY":263.4505,"EPHEMERIS_TYPE":0,"CLASSIFICATION_TYPE":"U","NORAD_CAT_ID":53718,"ELEMENT_SET_NO":999,"REV_AT_EPOCH":16928,"BSTAR":3.8833421e-5,"MEAN_MOTION_DOT":3.3e-6,"MEAN_MOTION_DDOT":0},{"OBJECT_NAME":"STARLINK-4644","OBJECT_ID":"2022-107V","EPOCH":"2025-09-24T04:34:04.234656","MEAN_MOTION":15.08830512,"ECCENTRICITY":0.00016655,"INCLINATION":53.2171,"RA_OF_ASC_NODE":251.1955,"ARG_OF_PERICENTER":115.0882,"MEAN_ANOMALY":245.0283,"EPHEMERIS_TYPE":0,"CLASSIFICATION_TYPE":"U","NORAD_CAT_ID":53719,"ELEMENT_SET_NO":999,"REV_AT_EPOCH":16970,"BSTAR":3.8307987e-5,"MEAN_MOTION_DOT":3.22e-6,"MEAN_MOTION_DDOT":0},{"OBJECT_NAME":"STARLINK-4642","OBJECT_ID":"2022-107W","EPOCH":"2025-09-24T06:31:59.949696","MEAN_MOTION":15.08833733,"ECCENTRICITY":0.00013471,"INCLINATION":53.2155,"RA_OF_ASC_NODE":280.9551,"ARG_OF_PERICENTER":93.5823,"MEAN_ANOMALY":266.5323,"EPHEMERIS_TYPE":0,"CLASSIFICATION_TYPE":"U","NORAD_CAT_ID":53720,"ELEMENT_SET_NO":999,"REV_AT_EPOCH":16929,"BSTAR":-0.00013788489,"MEAN_MOTION_DOT":-2.481e-5,"MEAN_MOTION_DDOT":0},{"OBJECT_NAME":"STARLINK-4707","OBJECT_ID":"2022-107X","EPOCH":"2025-09-23T05:16:25.857408","MEAN_MOTION":15.08842226,"ECCENTRICITY":0.00013416,"INCLINATION":53.2167,"RA_OF_ASC_NODE":285.7602,"ARG_OF_PERICENTER":88.0252,"MEAN_ANOMALY":272.0894,"EPHEMERIS_TYPE":0,"CLASSIFICATION_TYPE":"U","NORAD_CAT_ID":53721,"ELEMENT_SET_NO":999,"REV_AT_EPOCH":16913,"BSTAR":4.8297447e-5,"MEAN_MOTION_DOT":4.81e-6,"MEAN_MOTION_DDOT":0}]
