53702,STARLINK-4724,2022,95.44,260.0,+,53.22,Active,1,LEO,USA,USA,Commercial,Communications,Falcon,1 53702U 22107C   25267.14757712 -.00000232  00000+0  34890-5 0  9991,2 53702  53.2155 256.6607 0001420  90.1645 269.9510 15.08835282169958,15.08835282,0.000142,LEO
53703,STARLINK-4731,2022,95.44,260.0,+,53.22,Active,1,LEO,USA,USA,Commercial,Communications,Falcon,1 53703U 22107D   25267.26945789 -.00002908  00000+0 -16474-3 0  9997,2 53703  53.2157 270.9552 0001456  96.2310 263.8848 15.08824036169732,15.08824036,0.0001456,LEO
53704,STARLINK-4714,2022,95.44,260.0,+,53.22,Active,1,LEO,USA,USA,Commercial,Communications,Falcon,1 53704U 22107E   25267.25112451  .00000063  00000+0  22043-4 0  9997,2 53704  53.2164 271.5481 0001305  90.6736 269.4405 15.08835375169562,15.08835375,0.0001305,LEO
53705,STARLINK-4717,2022,95.44,260.0,+,53.22,Active,1,LEO,USA,USA,Commercial,Communications,Falcon,1 53705U 22107F   25267.31368033 -.00000898  00000+0 -38365-4 0  9996,2 53705  53.2175 271.2318 0001524  98.5936 261.5229 15.08831296169737,15.08831296,0.0001524,LEO
53706,STARLINK-4716,2022,95.44,260.0,+,53.22,Active,1,LEO,USA,USA,Commercial,Communications,Falcon,1 53706U 22107G   25267.23269418 -.00001001  00000+0 -44840-4 0  9997,2 53706  53.2156 271.4369 0001384  93.9996 266.1155 15.08837030169724,15.0883703,0.0001384,LEO
53707,STARLINK-4667,2022,95.44,260.0,+,53.22,Active,1,LEO,USA,USA,Commercial,Communications,Falcon,1 53707U 22107H   25267.22487473  .00000644  00000+0  58548-4 0  9990,2 53707  53.2152 256.4237 0001377  86.0194 274.0956 15.08848584169939,15.08848584,0.0001377,LEO
53708,STARLINK-4694,2022,95.44,260.0,+,53.22,Active,1,LEO,USA,USA,Commercial,Communications,Falcon,1 53708U 22107J   25267.14389720 -.00002329  00000+0 -12832-3 0  9997,2 53708  53.2168 256.6408 0001491 105.1589 254.9568 15.08822004169921,15.08822004,0.0001491,LEO
53709,STARLINK-4685,2022,95.44,260.0,+,53.22,Active,1,LEO,USA,USA,Commercial,Communications,Falcon,1 53709U 22107K   25267.32971785 -.00000838  00000+0 -34574-4 0  9997,2 53709  53.2160 275.6343 0001257  91.7229 268.3907 15.08827383169363,15.08827383,0.0001257,LEO
53711,STARLINK-4627,2022,95.44,260.0,+,53.22,Active,1,LEO,USA,USA,Commercial,Communications,Falcon,1 53711U 22107M   25267.27453866  .00003006  00000+0  20696-3 0  9996,2 53711  53.2164 275.9909 0001342  95.4096 264.7049 15.08829776169353,15.08829776,0.0001342,LEO
53712,STARLINK-4683,2022,95.44,260.0,+,53.22,Active,1,LEO,USA,USA,Commercial,Communications,Falcon,1 53712U 22107N   25267.31497462  .00000232  00000+0  32670-4 0  9996,2 53712  53.2165 275.5519 0001177  90.1642 269.9485 15.08833591169387,15.08833591,0.0001177,LEO
53715,STARLINK-4686,2022,95.44,260.0,+,53.22,Active,1,LEO,USA,USA,Commercial,Communications,Falcon,1 53715U 22107R   25267.33476296 -.00000741  00000+0 -28440-4 0  9990,2 53715  53.2155 280.6349 0001441  90.9124 269.2033 15.08837738169305,15.08837738,0.0001441,LEO
53716,STARLINK-4699,2022,95.44,260.0,+,53.22,Active,1,LEO,USA,USA,Commercial,Communications,Falcon,1 53716U 22107S   25267.33109398 -.00001762  00000+0 -92660-4 0  9996,2 53716  53.2165 280.6106 0001433  81.5401 278.5753 15.08840081169298,15.08840081,0.0001433,LEO
53718,STARLINK-4695,2022,95.44,260.0,+,53.22,Active,1,LEO,USA,USA,Commercial,Communications,Falcon,1 53718U 22107U   25267.32107607  .00000330  00000+0  38833-4 0  9998,2 53718  53.2164 281.2433 0001343  96.6640 263.4505 15.08836857169284,15.08836857,0.0001343,LEO
53719,STARLINK-4644,2022,95.44,260.0,+,53.22,Active,1,LEO,USA,USA,Commercial,Communications,Falcon,1 53719U 22107V   25267.19032679  .00000322  00000+0  38308-4 0  9998,2 53719  53.2171 251.1955 0001665 115.0882 245.0283 15.08830512169707,15.08830512,0.0001665,LEO
53720,STARLINK-4642,2022,95.44,260.0,+,53.22,Active,1,LEO,USA,USA,Commercial,Communications,Falcon,1 53720U 22107W   25267.27222164 -.00002481  00000+0 -13788-3 0  9993,2 53720  53.2155 280.9551 0001347  93.5823 266.5323 15.08833733169290,15.08833733,0.0001347,LEO
53721,STARLINK-4707,2022,95.44,260.0,+,53.22,Active,1,LEO,USA,USA,Commercial,Communications,Falcon,1 53721U 22107X   25266.21974372  .00000481  00000+0  48297-4 0  9992,2 53721  53.2167 285.7602 0001341  88.0252 272.0894 15.08842226169138,15.08842226,0.0001341,LEO
